[{"OBJECT_NAME":"STARLINK-5691","OBJECT_ID":"2023-015AF","EPOCH":"2026-03-09T01:29:14.830080","MEAN_MOTION":15.02536361,"ECCENTRICITY":0.00012871,"INCLINATION":43.0047,"RA_OF_ASC_NODE":316.9029,"ARG_OF_PERICENTER":266.685,"MEAN_ANOMALY":93.3845,"EPHEMERIS_TYPE":0,"CLASSIFICATION_TYPE":"U","NORAD_CAT_ID":55478,"ELEMENT_SET_NO":999,"REV_AT_EPOCH":17080,"BSTAR":4.5239692e-5,"MEAN_MOTION_DOT":4.08e-6,"MEAN_MOTION_DDOT":0},{"OBJECT_NAME":"OV1-5 DEB","OBJECT_ID":"1966-025G","EPOCH":"2026-03-09T05:46:25.644576","MEAN_MOTION":14.96071423,"ECCENTRICITY":0.0021156,"INCLINATION":144.6099,"RA_OF_ASC_NODE":304.3983,"ARG_OF_PERICENTER":142.8833,"MEAN_ANOMALY":217.3344,"EPHEMERIS_TYPE":0,"CLASSIFICATION_TYPE":"U","NORAD_CAT_ID":5599,"ELEMENT_SET_NO":999,"REV_AT_EPOCH":8962,"BSTAR":0.0043119514,"MEAN_MOTION_DOT":0.00050705,"MEAN_MOTION_DDOT":0}]
